[{"OBJECT_NAME":"PRAETORIAN SDA_614","OBJECT_ID":"2025-203N","EPOCH":"2026-03-09T14:45:09.374112","MEAN_MOTION":13.84765738,"ECCENTRICITY":0.0008407,"INCLINATION":81.2981,"RA_OF_ASC_NODE":102.9205,"ARG_OF_PERICENTER":101.1644,"MEAN_ANOMALY":259.0459,"EPHEMERIS_TYPE":0,"CLASSIFICATION_TYPE":"U","NORAD_CAT_ID":65577,"ELEMENT_SET_NO":999,"REV_AT_EPOCH":2493,"BSTAR":5.1996e-5,"MEAN_MOTION_DOT":7.1e-7,"MEAN_MOTION_DDOT":0},{"OBJECT_NAME":"FENGYUN 1C DEB","OBJECT_ID":"1999-025DSH","EPOCH":"2026-02-21T07:45:16.815456","MEAN_MOTION":14.13297206,"ECCENTRICITY":0.01343198,"INCLINATION":98.141,"RA_OF_ASC_NODE":252.6397,"ARG_OF_PERICENTER":308.8659,"MEAN_ANOMALY":50.0593,"EPHEMERIS_TYPE":0,"CLASSIFICATION_TYPE":"U","NORAD_CAT_ID":36160,"ELEMENT_SET_NO":999,"REV_AT_EPOCH":61049,"BSTAR":0.00020349178,"MEAN_MOTION_DOT":3.76e-6,"MEAN_MOTION_DDOT":0}]
